start=new Date('2023-01-14T00:00:00.000Z').valueOf();
sats=[{"TLE_LINE1":"1 49728U 21115E   23013.71247405 -.00005127  00000-0 -30440-3 0  9990","OBJECT_NAME":"STARLINK-3240","REV_AT_EPOCH":"6163","CLASSIFICATION_TYPE":"U","BSTAR":"-0.00030440000000","GP_ID":"222974789","APOAPSIS":"541.960","LAUNCH_DATE":"2021-12-02","COUNTRY_CODE":"US","INCLINATION":"53.2156","OBJECT_ID":"2021-115E","TLE_LINE2":"2 49728  53.2156 286.0563 0003097  22.7713 337.3416 15.08816533 61638","PERIOD":"95.439","MEAN_MOTION_DOT":"-0.00005127","NORAD_CAT_ID":"49728","SITE":"AFETR","FILE":"3743722","DECAY_DATE":null,"EPOCH":"2023-01-13T17:05:57.757920","MEAN_MOTION":"15.08816533","OBJECT_TYPE":"PAYLOAD","MEAN_ELEMENT_THEORY":"SGP4","PERIAPSIS":"537.675","REF_FRAME":"TEME","MEAN_ANOMALY":"337.3416","ARG_OF_PERICENTER":"22.7713","RA_OF_ASC_NODE":"286.0563","EPHEMERIS_TYPE":"0","SEMIMAJOR_AXIS":"6917.952","MEAN_MOTION_DDOT":"0.0000000000000","ELEMENT_SET_NO":"999","RCS_SIZE":"LARGE","CENTER_NAME":"EARTH","TIME_SYSTEM":"UTC","ECCENTRICITY":"0.00030970"},{"TLE_LINE2":"2 49729  53.2157 285.7532 0002197  45.5230 314.5942 15.08817216 61640","MEAN_MOTION_DOT":"-0.00007190","PERIOD":"95.439","OBJECT_ID":"2021-115F","NORAD_CAT_ID":"49729","INCLINATION":"53.2157","EPOCH":"2023-01-13T18:46:38.398368","MEAN_MOTION":"15.08817216","OBJECT_TYPE":"PAYLOAD","SITE":"AFETR","DECAY_DATE":null,"FILE":"3743722","BSTAR":"-0.00043434000000","GP_ID":"222974537","TLE_LINE1":"1 49729U 21115F   23013.78238887 -.00007190  00000-0 -43434-3 0  9991","OBJECT_NAME":"STARLINK-3251","CLASSIFICATION_TYPE":"U","REV_AT_EPOCH":"6164","COUNTRY_CODE":"US","LAUNCH_DATE":"2021-12-02","APOAPSIS":"541.335","CENTER_NAME":"EARTH","RCS_SIZE":"LARGE","ECCENTRICITY":"0.00021970","TIME_SYSTEM":"UTC","MEAN_ELEMENT_THEORY":"SGP4","PERIAPSIS":"538.295","REF_FRAME":"TEME","EPHEMERIS_TYPE":"0","MEAN_MOTION_DDOT":"0.0000000000000","SEMIMAJOR_AXIS":"6917.950","ELEMENT_SET_NO":"999","ARG_OF_PERICENTER":"45.5230","MEAN_ANOMALY":"314.5942","RA_OF_ASC_NODE":"285.7532"},{"ELEMENT_SET_NO":"999","SEMIMAJOR_AXIS":"6917.948","MEAN_MOTION_DDOT":"0.0000000000000","EPHEMERIS_TYPE":"0","RA_OF_ASC_NODE":"285.7103","ARG_OF_PERICENTER":"30.0384","MEAN_ANOMALY":"330.0757","REF_FRAME":"TEME","PERIAPSIS":"538.004","MEAN_ELEMENT_THEORY":"SGP4","ECCENTRICITY":"0.00026150","TIME_SYSTEM":"UTC","CENTER_NAME":"EARTH","RCS_SIZE":"LARGE","LAUNCH_DATE":"2021-12-02","COUNTRY_CODE":"US","APOAPSIS":"541.622","GP_ID":"222973791","BSTAR":"-0.00025946000000","CLASSIFICATION_TYPE":"U","OBJECT_NAME":"STARLINK-3249","REV_AT_EPOCH":"6164","TLE_LINE1":"1 49730U 21115G   23013.78975484 -.00004413  00000-0 -25946-3 0  9997","OBJECT_TYPE":"PAYLOAD","MEAN_MOTION":"15.08818010","EPOCH":"2023-01-13T18:57:14.818176","FILE":"3743722","DECAY_DATE":null,"SITE":"AFETR","NORAD_CAT_ID":"49730","MEAN_MOTION_DOT":"-0.00004413","TLE_LINE2":"2 49730  53.2175 285.7103 0002615  30.0384 330.0757 15.08818010 61640","PERIOD":"95.439","OBJECT_ID":"2021-115G","INCLINATION":"53.2175"},{"BSTAR":"-0.00012776000000","GP_ID":"222940768","OBJECT_NAME":"STARLINK-3228","REV_AT_EPOCH":"6153","CLASSIFICATION_TYPE":"U","TLE_LINE1":"1 49731U 21115H   23013.05744131 -.00002321  00000-0 -12776-3 0  9994","COUNTRY_CODE":"US","LAUNCH_DATE":"2021-12-02","APOAPSIS":"541.389","NORAD_CAT_ID":"49731","TLE_LINE2":"2 49731  53.2190 289.0016 0002335  34.3854 325.7289 15.08830633 61530","PERIOD":"95.438","OBJECT_ID":"2021-115H","MEAN_MOTION_DOT":"-0.00002321","INCLINATION":"53.2190","OBJECT_TYPE":"PAYLOAD","EPOCH":"2023-01-13T01:22:42.929184","MEAN_MOTION":"15.08830633","DECAY_DATE":null,"FILE":"3743417","SITE":"AFETR","MEAN_ELEMENT_THEORY":"SGP4","PERIAPSIS":"538.159","REF_FRAME":"TEME","ELEMENT_SET_NO":"999","EPHEMERIS_TYPE":"0","SEMIMAJOR_AXIS":"6917.909","MEAN_MOTION_DDOT":"0.0000000000000","RA_OF_ASC_NODE":"289.0016","ARG_OF_PERICENTER":"34.3854","MEAN_ANOMALY":"325.7289","CENTER_NAME":"EARTH","RCS_SIZE":"LARGE","ECCENTRICITY":"0.00023350","TIME_SYSTEM":"UTC"},{"TIME_SYSTEM":"UTC","ECCENTRICITY":"0.00024080","RCS_SIZE":"LARGE","CENTER_NAME":"EARTH","RA_OF_ASC_NODE":"288.9355","MEAN_ANOMALY":"328.4851","ARG_OF_PERICENTER":"31.6286","ELEMENT_SET_NO":"999","EPHEMERIS_TYPE":"0","MEAN_MOTION_DDOT":"0.0000000000000","SEMIMAJOR_AXIS":"6917.833","MEAN_ELEMENT_THEORY":"SGP4","PERIAPSIS":"538.032","REF_FRAME":"TEME","FILE":"3743417","DECAY_DATE":null,"SITE":"AFETR","OBJECT_TYPE":"PAYLOAD","EPOCH":"2023-01-13T01:43:52.927968","MEAN_MOTION":"15.08855561","INCLINATION":"53.2162","NORAD_CAT_ID":"49732","OBJECT_ID":"2021-115J","TLE_LINE2":"2 49732  53.2162 288.9355 0002408  31.6286 328.4851 15.08855561 61536","PERIOD":"95.437","MEAN_MOTION_DOT":"0.00016412","APOAPSIS":"541.364","COUNTRY_CODE":"US","LAUNCH_DATE":"2021-12-02","OBJECT_NAME":"STARLINK-3246","CLASSIFICATION_TYPE":"U","REV_AT_EPOCH":"6153","TLE_LINE1":"1 49732U 21115J   23013.07214037  .00016412  00000-0  10464-2 0  9999","BSTAR":"0.00104640000000","GP_ID":"222941018"},{"MEAN_ELEMENT_THEORY":"SGP4","REF_FRAME":"TEME","PERIAPSIS":"538.071","ARG_OF_PERICENTER":"28.1479","MEAN_ANOMALY":"331.9648","RA_OF_ASC_NODE":"285.4001","EPHEMERIS_TYPE":"0","MEAN_MOTION_DDOT":"0.0000000000000","SEMIMAJOR_AXIS":"6917.934","ELEMENT_SET_NO":"999","RCS_SIZE":"LARGE","CENTER_NAME":"EARTH","TIME_SYSTEM":"UTC","ECCENTRICITY":"0.00024980","TLE_LINE1":"1 49733U 21115K   23013.85968123 -.00001259  00000-0 -61035-4 0  9995","CLASSIFICATION_TYPE":"U","OBJECT_NAME":"STARLINK-3252","REV_AT_EPOCH":"6165","BSTAR":"-0.00006103500000","GP_ID":"222975036","APOAPSIS":"541.527","COUNTRY_CODE":"US","LAUNCH_DATE":"2021-12-02","INCLINATION":"53.2175","TLE_LINE2":"2 49733  53.2175 285.4001 0002498  28.1479 331.9648 15.08822536 61657","PERIOD":"95.439","OBJECT_ID":"2021-115K","MEAN_MOTION_DOT":"-0.00001259","NORAD_CAT_ID":"49733","SITE":"AFETR","DECAY_DATE":null,"FILE":"3743722","EPOCH":"2023-01-13T20:37:56.458272","MEAN_MOTION":"15.08822536","OBJECT_TYPE":"PAYLOAD"},{"GP_ID":"222942521","BSTAR":"0.00013395000000","CLASSIFICATION_TYPE":"U","OBJECT_NAME":"STARLINK-3238","REV_AT_EPOCH":"6167","TLE_LINE1":"1 49734U 21115L   23013.01788490  .00001844  00000-0  13395-3 0  9994","LAUNCH_DATE":"2021-12-02","COUNTRY_CODE":"US","APOAPSIS":"541.387","NORAD_CAT_ID":"49734","TLE_LINE2":"2 49734  53.2169 279.1974 0002350  35.1332 324.9815 15.08834721 61672","OBJECT_ID":"2021-115L","PERIOD":"95.438","MEAN_MOTION_DOT":"0.00001844","INCLINATION":"53.2169","OBJECT_TYPE":"PAYLOAD","MEAN_MOTION":"15.08834721","EPOCH":"2023-01-13T00:25:45.255360","DECAY_DATE":null,"FILE":"3743417","SITE":"AFETR","REF_FRAME":"TEME","PERIAPSIS":"538.136","MEAN_ELEMENT_THEORY":"SGP4","ELEMENT_SET_NO":"999","SEMIMAJOR_AXIS":"6917.897","MEAN_MOTION_DDOT":"0.0000000000000","EPHEMERIS_TYPE":"0","RA_OF_ASC_NODE":"279.1974","ARG_OF_PERICENTER":"35.1332","MEAN_ANOMALY":"324.9815","CENTER_NAME":"EARTH","RCS_SIZE":"LARGE","ECCENTRICITY":"0.00023500","TIME_SYSTEM":"UTC"},{"TIME_SYSTEM":"UTC","ECCENTRICITY":"0.00019810","RCS_SIZE":"LARGE","CENTER_NAME":"EARTH","MEAN_ANOMALY":"312.9101","ARG_OF_PERICENTER":"47.2057","RA_OF_ASC_NODE":"285.3845","MEAN_MOTION_DDOT":"0.0000000000000","SEMIMAJOR_AXIS":"6917.877","EPHEMERIS_TYPE":"0","ELEMENT_SET_NO":"999","PERIAPSIS":"538.372","REF_FRAME":"TEME","MEAN_ELEMENT_THEORY":"SGP4","SITE":"AFETR","FILE":"3743722","DECAY_DATE":null,"MEAN_MOTION":"15.08840970","EPOCH":"2023-01-13T20:43:14.947680","OBJECT_TYPE":"PAYLOAD","INCLINATION":"53.2163","TLE_LINE2":"2 49735  53.2163 285.3845 0001981  47.2057 312.9101 15.08840970 61656","PERIOD":"95.437","MEAN_MOTION_DOT":"0.00025886","OBJECT_ID":"2021-115M","NORAD_CAT_ID":"49735","APOAPSIS":"541.113","LAUNCH_DATE":"2021-12-02","COUNTRY_CODE":"US","TLE_LINE1":"1 49735U 21115M   23013.86336745  .00025886  00000-0  16385-2 0  9993","CLASSIFICATION_TYPE":"U","OBJECT_NAME":"STARLINK-3113","REV_AT_EPOCH":"6165","GP_ID":"222973542","BSTAR":"0.00163850000000"},{"CENTER_NAME":"EARTH","RCS_SIZE":"LARGE","ECCENTRICITY":"0.00024660","TIME_SYSTEM":"UTC","PERIAPSIS":"538.027","REF_FRAME":"TEME","MEAN_ELEMENT_THEORY":"SGP4","MEAN_MOTION_DDOT":"0.0000000000000","SEMIMAJOR_AXIS":"6917.868","EPHEMERIS_TYPE":"0","ELEMENT_SET_NO":"999","MEAN_ANOMALY":"321.2628","ARG_OF_PERICENTER":"38.8541","RA_OF_ASC_NODE":"277.3647","TLE_LINE2":"2 49736  53.2152 277.3647 0002466  38.8541 321.2628 15.08844161 62844","OBJECT_ID":"2021-115N","PERIOD":"95.437","MEAN_MOTION_DOT":"0.00007734","NORAD_CAT_ID":"49736","INCLINATION":"53.2152","MEAN_MOTION":"15.08844161","EPOCH":"2023-01-13T10:08:39.638400","OBJECT_TYPE":"PAYLOAD","SITE":"AFETR","FILE":"3743650","DECAY_DATE":null,"GP_ID":"222950209","BSTAR":"0.00050341000000","TLE_LINE1":"1 49736U 21115N   23013.42268100  .00007734  00000-0  50341-3 0  9998","OBJECT_NAME":"STARLINK-3148","REV_AT_EPOCH":"6284","CLASSIFICATION_TYPE":"U","COUNTRY_CODE":"US","LAUNCH_DATE":"2021-12-02","APOAPSIS":"541.439"},{"TLE_LINE2":"2 49737  53.2148 275.5975 0001603  70.9810 289.1356 15.08816391 61799","MEAN_MOTION_DOT":"-0.00008711","PERIOD":"95.439","OBJECT_ID":"2021-115P","NORAD_CAT_ID":"49737","INCLINATION":"53.2148","EPOCH":"2023-01-13T19:35:39.838848","MEAN_MOTION":"15.08816391","OBJECT_TYPE":"PAYLOAD","SITE":"AFETR","FILE":"3743722","DECAY_DATE":null,"BSTAR":"-0.00053019000000","GP_ID":"222974538","TLE_LINE1":"1 49737U 21115P   23013.81643332 -.00008711  00000-0 -53019-3 0  9999","CLASSIFICATION_TYPE":"U","OBJECT_NAME":"STARLINK-3225","REV_AT_EPOCH":"6179","COUNTRY_CODE":"US","LAUNCH_DATE":"2021-12-02","APOAPSIS":"540.927","CENTER_NAME":"EARTH","RCS_SIZE":"LARGE","ECCENTRICITY":"0.00016030","TIME_SYSTEM":"UTC","MEAN_ELEMENT_THEORY":"SGP4","PERIAPSIS":"538.709","REF_FRAME":"TEME","EPHEMERIS_TYPE":"0","MEAN_MOTION_DDOT":"0.0000000000000","SEMIMAJOR_AXIS":"6917.953","ELEMENT_SET_NO":"999","MEAN_ANOMALY":"289.1356","ARG_OF_PERICENTER":"70.9810","RA_OF_ASC_NODE":"275.5975"}];
